XRISM                   
1 57800U 23137A   24244.33810891  .00016661  00000+0  12204-2 0  9995
2 57800  31.0012 253.8756 0009950 231.8958 128.0781 15.02380228 53910
